0 OPS 4682 DEB
1 38379U 65027CG  13285.86569128  .00000868  00000-0  29177-2 0   614
2 38379 090.2641 246.2360 0018594 265.2531 094.3165 12.98564271531459
0 OPS 4682 DEB
1 38379U 65027CG  13287.63794796  .00000868  00000-0  29177-2 0   623
2 38379 090.2683 246.2731 0027093 237.1565 122.6851 12.98563916531683
0 OPS 4682 DEB
1 38379U 65027CG  13288.63962263  .00000869  00000-0  29177-2 0   632
2 38379 090.2695 246.2983 0030266 227.7968 132.0443 12.98562698531816
0 OPS 4682 DEB
1 38379U 65027CG  13289.33309250  .00000868  00000-0  29177-2 0   641
2 38379 090.2735 246.3103 0026112 230.1333 129.6267 12.98557517531905
0 OPS 4682 DEB
1 38379U 65027CG  13289.87248380  .00000868  00000-0  29177-2 0   657
2 38379 090.2773 246.3249 0025797 223.2783 136.6033 12.98556942531975
0 OPS 4682 DEB
1 38379U 65027CG  13292.87752130  .00000868  00000-0  29177-2 0   665
2 38379 090.2771 246.4020 0025329 216.8111 143.1142 12.98561745532360
0 OPS 4682 DEB
1 38379U 65027CG  13294.64971724  .00000868  00000-0  29177-2 0   675
2 38379 090.2777 246.4477 0025393 211.8290 148.1269 12.98564733532596
